BEIDOU-2 G5 (C05)       
1 38091U 12008A   26094.90095720  .00000058  00000+0  00000+0 0  9996
2 38091   3.3917  70.1175 0013207 261.3439 244.8788  1.00276145 51630
BEIDOU-2 M3 (C11)       
1 38250U 12018A   26094.08855807 -.00000064  00000+0  00000+0 0  9991
2 38250  55.8207 307.3724 0020184 279.4080  80.3921  1.86229902 94564
BEIDOU-2 M4 (C12)       
1 38251U 12018B   26094.02075009 -.00000064  00000+0  00000+0 0  9994
2 38251  55.7212 306.5945 0011480 286.2876  73.6134  1.86229532 94564
SES-5 (EGNOS/PRN 136)   
1 38652U 12036A   26094.81894317  .00000035  00000+0  00000+0 0  9994
2 38652   0.0599 303.2244 0002027  70.1077 119.5830  1.00274399 43728
BEIDOU-2 M6 (C14)       
1 38775U 12050B   26094.80463637 -.00000040  00000+0  00000+0 0  9999
2 38775  56.4825  65.3192 0014456 345.2296  14.7002  1.86231043 91944
GSAT-10 (GAGAN/PRN 128) 
1 38779U 12051B   26094.90449558 -.00000164  00000+0  00000+0 0  9998
2 38779   0.0830 265.6573 0006253 171.7750 164.3787  1.00273158 49360
GPS BIIF-3  (PRN 24)    
1 38833U 12053A   26094.52832240  .00000028  00000+0  00000+0 0  9991
2 38833  53.5701 146.6177 0177408  64.9799 296.9355  2.00566337 97963
GSAT0103 (GALILEO-FM3)  
1 38857U 12055A   26091.63283018  .00000036  00000+0  00000+0 0  9990
2 38857  55.7580 103.6444 0005893 291.3384  68.6425  1.70473455 83705
BEIDOU-2 G6 (C02)       
1 38953U 12059A   26094.90598389 -.00000173  00000+0  00000+0 0  9997
2 38953   4.2366  74.2938 0010923 311.6333 217.4953  1.00271765 49170
LUCH 5B (SDCM/PRN 125)  
1 38977U 12061A   26094.67215833 -.00000135  00000+0  00000+0 0  9998
2 38977  10.3275  50.5977 0002414 229.8274 138.2178  1.00273619 48878
COSMOS 2485 (747)       
1 39155U 13019A   26093.29778161 -.00000003  00000+0  00000+0 0  9990
2 39155  65.3788  76.1162 0025098 237.7826 121.9613  2.13103023100687
GPS BIIF-4  (PRN 27)    
1 39166U 13023A   26090.90349851 -.00000034  00000+0  00000+0 0  9996
2 39166  54.5658 272.1198 0141962  50.3418 310.8851  2.00563989 94331
IRNSS-1A                
1 39199U 13034A   26092.99628165  .00000081  00000+0  00000+0 0  9994
2 39199  35.5564  64.9409 0016725 190.8703 349.2228  1.00278968 46610
GPS BIIF-5  (PRN 30)    
1 39533U 14008A   26094.39350704  .00000027  00000+0  00000+0 0  9995
2 39533  53.6406 152.3305 0083287 229.4074 129.9448  2.00555143 88204
ASTRA 5B (EGNOS/PRN 123)
1 39617U 14011B   26094.89394661  .00000138  00000+0  00000+0 0  9990
2 39617   0.0736 306.3853 0003372  49.2644 182.8556  1.00273186 43938
COSMOS 2492 (754)       
1 39620U 14012A   26093.25674527 -.00000045  00000+0  00000+0 0  9994
2 39620  65.3400 316.4836 0012343 329.7830  30.1983  2.13103206 93640
IRNSS-1B                
1 39635U 14017A   26094.47245049  .00000100  00000+0  00000+0 0  9994
2 39635  29.0628 241.6634 0022929 179.7582 356.6149  1.00265806 44059
